{"features": [{"geometry": {"coordinates": [-42.76058535784696, -25.38905900616946], "type": "Point"}, "properties": {"datetime": "2025-04-23T13:40:21+00:00", "emission": 795.6712458972577, "emission_uncertainty": 232.3237509396198, "fetch": 990.0, "ime": 214.8312363922596, "plume_id": "20250423_134021_00_4001_strip_C", "plume_provider": "carbon_mapper", "plume_provider_id": "tan20250423t134021c00s4001-C", "plume_provider_version": "version:v3;processing_software:cmpro=3.39.1", "plume_quality": "good", "wind_direction_avg": 101.72041598430351, "wind_direction_std": 22.612573415447926, "wind_source": "ecmwf_ifs", "wind_speed_avg": 1.0185185185185184, "wind_speed_std": 0.21556382827449652}, "type": "Feature"}], "type": "FeatureCollection"}