{
"type": "FeatureCollection",
"name": "mouth_seed",
"crs": { "type": "name", "properties": { "name": "urn:ogc:def:crs:OGC:1.3:CRS84" } },
"features": [
{ "type": "Feature", "properties": { "scene_id": "20250302_030003_92_4001", "row": 155, "column": 595, "radius_pixels": 6, "basis": "Visual audit of the georeferenced Tanager RGB image" }, "geometry": { "type": "Polygon", "coordinates": [ [ [ 117.678836816171412, 0.614856993400764 ], [ 117.678829006863495, 0.61469738333385 ], [ 117.678805694467258, 0.614539312391388 ], [ 117.67876710349465, 0.614384302881283 ], [ 117.678713605598361, 0.614233847628168 ], [ 117.678645715992445, 0.614089395596751 ], [ 117.678564088490646, 0.613952337937552 ], [ 117.678469509209691, 0.613823994589421 ], [ 117.678362888998691, 0.613705601567863 ], [ 117.678245254667161, 0.613598299061567 ], [ 117.678117739096379, 0.613503120451801 ], [ 117.677981570329095, 0.613420982360406 ], [ 117.677838059742982, 0.613352675822235 ], [ 117.677688589421408, 0.613298858667045 ], [ 117.677534598843181, 0.613260049184225 ], [ 117.677377571019861, 0.613236621131353 ], [ 117.677219018213407, 0.613228800134666 ], [ 117.677060467372542, 0.613236661516109 ], [ 117.676903445427314, 0.613260129567882 ], [ 117.676749464583978, 0.613298978281495 ], [ 117.676600007761806, 0.613352833524278 ], [ 117.676456514311511, 0.613421176642427 ], [ 117.676320366153831, 0.613503349455856 ], [ 117.676192874470672, 0.613598560596779 ], [ 117.67607526707765, 0.613705893130958 ], [ 117.675968676599666, 0.613824313388242 ], [ 117.675874129562928, 0.613952680917343 ], [ 117.675792536508979, 0.614089759468987 ], [ 117.675724683225525, 0.61423422890166 ], [ 117.675671223178824, 0.614384697895298 ], [ 117.675632671220384, 0.61453971735048 ], [ 117.675609398628609, 0.614697794344071 ], [ 117.675601629533006, 0.614857406506933 ], [ 117.675609438755757, 0.615017016685219 ], [ 117.67563275109103, 0.61517508774406 ], [ 117.675671342029162, 0.615330097371075 ], [ 117.675724839918786, 0.61548055273714 ], [ 117.675792729546103, 0.615625004873208 ], [ 117.675874357096603, 0.615762062624736 ], [ 117.675968936451625, 0.615890406049323 ], [ 117.676075556759258, 0.616008799128531 ], [ 117.67619319120621, 0.616116101671453 ], [ 117.676320706906864, 0.616211280295413 ], [ 117.676456875813372, 0.616293418378024 ], [ 117.676600386542788, 0.616361724884773 ], [ 117.676749857006214, 0.616415541987108 ], [ 117.676903847719373, 0.616454351397673 ], [ 117.677060875665575, 0.616477779361666 ], [ 117.677219428578042, 0.616485600256266 ], [ 117.677377979504044, 0.616477738763451 ], [ 117.677535001510293, 0.616454270595299 ], [ 117.677688982388105, 0.616415421764776 ], [ 117.677838439216956, 0.616361566409042 ], [ 117.677981932645821, 0.616293223186243 ], [ 117.678118080754786, 0.616211050280486 ], [ 117.678245572363906, 0.616115839063105 ], [ 117.678363179660295, 0.616008506471277 ], [ 117.678469770022829, 0.615890086177368 ], [ 117.678564316929709, 0.615761718634073 ], [ 117.678645909844434, 0.615624640091212 ], [ 117.6787137629846, 0.615480170689962 ], [ 117.678767222889448, 0.615329701749178 ], [ 117.678805774712941, 0.615174682366251 ], [ 117.678829047181864, 0.615016605461539 ], [ 117.678836816171412, 0.614856993400764 ] ] ] } }
]
}
