{
"type": "FeatureCollection",
"name": "shoreline_monitoring_sections",
"crs": { "type": "name", "properties": { "name": "urn:ogc:def:crs:OGC:1.3:CRS84" } },
"features": [
{ "type": "Feature", "properties": { "section": "N1", "edge_pixels": 212, "x_label": 575505.0, "y_label": 68475.0, "median_distance_m": 120.0, "tanager_median_relative_signal": 80.73476702508961, "sentinel_median_relative_signal": 80.82437275985663, "relative_signal_score": 81.362007168458788, "monitoring_rank": 1, "tanager_rank": 1, "sentinel_rank": 1, "longitude": 117.67856780206077, "latitude": 0.61947082674050824 }, "geometry": { "type": "Point", "coordinates": [ 117.678567802060769, 0.619470826740508 ] } },
{ "type": "Feature", "properties": { "section": "S1", "edge_pixels": 111, "x_label": 574725.0, "y_label": 67485.0, "median_distance_m": 108.16653826391968, "tanager_median_relative_signal": 52.777777777777779, "sentinel_median_relative_signal": 52.060931899641574, "relative_signal_score": 50.896057347670251, "monitoring_rank": 2, "tanager_rank": 2, "sentinel_rank": 2, "longitude": 117.67155710252312, "latitude": 0.61051551483245781 }, "geometry": { "type": "Point", "coordinates": [ 117.671557102523124, 0.610515514832458 ] } },
{ "type": "Feature", "properties": { "section": "S2", "edge_pixels": 91, "x_label": 574455.0, "y_label": 66495.0, "median_distance_m": 90.0, "tanager_median_relative_signal": 34.13978494623656, "sentinel_median_relative_signal": 33.422939068100362, "relative_signal_score": 33.781362007168461, "monitoring_rank": 3, "tanager_rank": 3, "sentinel_rank": 3, "longitude": 117.66912961202114, "latitude": 0.60155960376524342 }, "geometry": { "type": "Point", "coordinates": [ 117.669129612021138, 0.601559603765243 ] } },
{ "type": "Feature", "properties": { "section": "S4", "edge_pixels": 62, "x_label": 573660.0, "y_label": 64290.0, "median_distance_m": 125.48619469105418, "tanager_median_relative_signal": 17.831541218637991, "sentinel_median_relative_signal": 25.134408602150536, "relative_signal_score": 23.163082437275985, "monitoring_rank": 4, "tanager_rank": 4, "sentinel_rank": 4, "longitude": 117.66198287791453, "latitude": 0.58161251607834541 }, "geometry": { "type": "Point", "coordinates": [ 117.661982877914525, 0.581612516078345 ] } },
{ "type": "Feature", "properties": { "section": "S3", "edge_pixels": 49, "x_label": 574335.0, "y_label": 65535.0, "median_distance_m": 60.0, "tanager_median_relative_signal": 10.931899641577061, "sentinel_median_relative_signal": 9.3189964157706093, "relative_signal_score": 12.365591397849464, "monitoring_rank": 5, "tanager_rank": 5, "sentinel_rank": 5, "longitude": 117.66805016867474, "latitude": 0.59287491945482829 }, "geometry": { "type": "Point", "coordinates": [ 117.668050168674739, 0.592874919454828 ] } },
{ "type": "Feature", "properties": { "section": "S5", "edge_pixels": 33, "x_label": 573405.0, "y_label": 63645.0, "median_distance_m": 94.868329805051388, "tanager_median_relative_signal": 6.182795698924731, "sentinel_median_relative_signal": 8.7813620071684575, "relative_signal_score": 6.6308243727598555, "monitoring_rank": 6, "tanager_rank": 6, "sentinel_rank": 6, "longitude": 117.65969061938486, "latitude": 0.57577766422308196 }, "geometry": { "type": "Point", "coordinates": [ 117.659690619384861, 0.575777664223082 ] } }
]
}
