{"features": [{"geometry": {"coordinates": [-42.82175849375102, -25.596391347236207], "type": "Point"}, "properties": {"datetime": "2025-04-23T13:40:21+00:00", "emission": 309.5482063872946, "emission_uncertainty": 147.25314187363253, "fetch": 420.0, "ime": 24.22551180422306, "plume_id": "20250423_134021_00_4001_strip_A", "plume_provider": "carbon_mapper", "plume_provider_id": "tan20250423t134021c00s4001-A", "plume_provider_version": "version:v3;processing_software:cmpro=3.39.1", "plume_quality": "questionable", "wind_direction_avg": 298.52806180684695, "wind_direction_std": 21.388156245376344, "wind_source": "ecmwf_ifs", "wind_speed_avg": 1.4907407407407407, "wind_speed_std": 0.44521538074708544}, "type": "Feature"}, {"geometry": {"coordinates": [-42.75132650593551, -25.441184715020867], "type": "Point"}, "properties": {"datetime": "2025-04-23T13:40:21+00:00", "emission": 367.295831732045, "emission_uncertainty": 121.76784609731133, "fetch": 1770.0, "ime": 291.0956517159939, "plume_id": "20250423_134021_00_4001_strip_B", "plume_provider": "carbon_mapper", "plume_provider_id": "tan20250423t134021c00s4001-B", "plume_provider_version": "version:v3;processing_software:cmpro=3.39.1", "plume_quality": "good", "wind_direction_avg": 100.15520011681845, "wind_direction_std": 61.90718649678437, "wind_source": "ecmwf_ifs", "wind_speed_avg": 0.6203703703703703, "wind_speed_std": 0.18191558059618979}, "type": "Feature"}], "type": "FeatureCollection"}